BEIDOU-3 G3             
1 45807U 20040A   26062.87753244 -.00000366  00000+0  00000+0 0  9990
2 45807   2.1888  67.1175 0004284 315.6999 205.1966  1.00275701 21016
GALAXY 30 (G-30)        
1 46114U 20056C   26062.70433469  .00000023  00000+0  00000+0 0  9994
2 46114   0.0158 120.6788 0002192 220.8853 308.4406  1.00272514 20230
QZS-1R (MICHIBIKI-1R)   
1 49336U 21096A   26060.38447264 -.00000259  00000+0  00000+0 0  9990
2 49336  37.2374  81.1754 0747027 269.6443  80.6815  1.00291836 15925
QZS-6 (MICHIBIKI-6)     
1 62876U 25023A   26062.66262512 -.00000247  00000+0  00000+0 0  9999
2 62876   0.0440 306.2401 0001894  29.5503 154.6750  1.00270273  3903
